{
  "norad_id": 47397,
  "name": "STARLINK-2119",
  "history": [
    {
      "epoch": "2026-04-10T12:00:43.942176Z",
      "apogee_km": 475.88447188321334,
      "perigee_km": 474.6289301571869,
      "latitude_deg": -5.235188479319289e-05,
      "longitude_deg": -104.25758626524483,
      "height_km": 476.14153784622465,
      "semi_major_axis_km": 6853.3937010202,
      "eccentricity": 9.16e-05,
      "inclination_deg": 53.1599,
      "raan_deg": 274.659,
      "arg_perigee_deg": 88.7489,
      "mean_anomaly_deg": 271.3616,
      "mean_motion_rev_day": 15.30186057
    },
    {
      "epoch": "2026-04-11T20:55:49.560960Z",
      "apogee_km": 475.7605764222544,
      "perigee_km": 474.57221361355823,
      "latitude_deg": -1.7630331871958116e-05,
      "longitude_deg": 114.2465218925315,
      "height_km": 475.9873302957563,
      "semi_major_axis_km": 6853.303395017906,
      "eccentricity": 8.67e-05,
      "inclination_deg": 53.1613,
      "raan_deg": 268.2884,
      "arg_perigee_deg": 82.4723,
      "mean_anomaly_deg": 277.6376,
      "mean_motion_rev_day": 15.30216302
    },
    {
      "epoch": "2026-04-13T05:50:57.878880Z",
      "apogee_km": 475.8195093786844,
      "perigee_km": 474.6396337897213,
      "latitude_deg": 2.666969061810544e-05,
      "longitude_deg": -27.26073802379597,
      "height_km": 475.96903912925217,
      "semi_major_axis_km": 6853.366571584203,
      "eccentricity": 8.608e-05,
      "inclination_deg": 53.1613,
      "raan_deg": 261.9177,
      "arg_perigee_deg": 74.3304,
      "mean_anomaly_deg": 285.7792,
      "mean_motion_rev_day": 15.30195143
    },
    {
      "epoch": "2026-04-14T19:28:14.617056Z",
      "apogee_km": 475.8099702994641,
      "perigee_km": 474.6873857254059,
      "latitude_deg": -5.4912220551419784e-05,
      "longitude_deg": 119.59330791292699,
      "height_km": 476.03598974314554,
      "semi_major_axis_km": 6853.385678012434,
      "eccentricity": 8.19e-05,
      "inclination_deg": 53.1612,
      "raan_deg": 254.6366,
      "arg_perigee_deg": 78.5396,
      "mean_anomaly_deg": 281.5696,
      "mean_motion_rev_day": 15.30188744
    },
    {
      "epoch": "2026-04-15T20:33:04.821120Z",
      "apogee_km": 475.74239538814436,
      "perigee_km": 474.6842380992384,
      "latitude_deg": -5.416902106414032e-05,
      "longitude_deg": 97.50010272105536,
      "height_km": 476.05539581097815,
      "semi_major_axis_km": 6853.350316743691,
      "eccentricity": 7.72e-05,
      "inclination_deg": 53.161,
      "raan_deg": 249.7826,
      "arg_perigee_deg": 83.8388,
      "mean_anomaly_deg": 276.27,
      "mean_motion_rev_day": 15.30200587
    },
    {
      "epoch": "2026-04-16T20:03:53.830080Z",
      "apogee_km": 475.80925921163816,
      "perigee_km": 474.70586268732586,
      "latitude_deg": -7.551762664380719e-05,
      "longitude_deg": 99.27941488721929,
      "height_km": 476.07481886902536,
      "semi_major_axis_km": 6853.394560949482,
      "eccentricity": 8.05e-05,
      "inclination_deg": 53.1609,
      "raan_deg": 245.2318,
      "arg_perigee_deg": 81.4991,
      "mean_anomaly_deg": 278.61,
      "mean_motion_rev_day": 15.30185769
    },
    {
      "epoch": "2026-04-17T21:08:44.359872Z",
      "apogee_km": 475.80475778176697,
      "perigee_km": 474.64695066117565,
      "latitude_deg": -3.008478919629435e-06,
      "longitude_deg": 77.1849015772288,
      "height_km": 476.0243845008629,
      "semi_major_axis_km": 6853.362854221471,
      "eccentricity": 8.447e-05,
      "inclination_deg": 53.1608,
      "raan_deg": 240.3778,
      "arg_perigee_deg": 80.0308,
      "mean_anomaly_deg": 280.0788,
      "mean_motion_rev_day": 15.30196388
    },
    {
      "epoch": "2026-04-18T20:39:32.173056Z",
      "apogee_km": 475.8139743397105,
      "perigee_km": 474.6351961470491,
      "latitude_deg": 7.290254446593017e-06,
      "longitude_deg": 78.96913162493607,
      "height_km": 476.02645517911793,
      "semi_major_axis_km": 6853.3615852433795,
      "eccentricity": 8.6e-05,
      "inclination_deg": 53.1604,
      "raan_deg": 235.8269,
      "arg_perigee_deg": 80.5457,
      "mean_anomaly_deg": 279.5641,
      "mean_motion_rev_day": 15.30196813
    },
    {
      "epoch": "2026-04-19T20:10:18.973632Z",
      "apogee_km": 475.80243765738214,
      "perigee_km": 474.49620128489187,
      "latitude_deg": 3.957338504375633e-05,
      "longitude_deg": 80.75760761624824,
      "height_km": 475.86491043188374,
      "semi_major_axis_km": 6853.286319471137,
      "eccentricity": 9.53e-05,
      "inclination_deg": 53.1591,
      "raan_deg": 231.276,
      "arg_perigee_deg": 73.7399,
      "mean_anomaly_deg": 286.3707,
      "mean_motion_rev_day": 15.30222021
    },
    {
      "epoch": "2026-04-20T14:58:57.988128Z",
      "apogee_km": 475.8383325613531,
      "perigee_km": 474.6433775985415,
      "latitude_deg": -5.617235524936443e-06,
      "longitude_deg": 154.18227832546202,
      "height_km": 476.0066395110788,
      "semi_major_axis_km": 6853.377855079947,
      "eccentricity": 8.718e-05,
      "inclination_deg": 53.1586,
      "raan_deg": 227.6358,
      "arg_perigee_deg": 77.1672,
      "mean_anomaly_deg": 282.9426,
      "mean_motion_rev_day": 15.30191364
    },
    {
      "epoch": "2026-04-21T19:11:55.692960Z",
      "apogee_km": 475.7722159635414,
      "perigee_km": 474.64278478987944,
      "latitude_deg": 8.38500424365827e-06,
      "longitude_deg": 84.32265789283635,
      "height_km": 476.0679412631823,
      "semi_major_axis_km": 6853.34450037671,
      "eccentricity": 8.24e-05,
      "inclination_deg": 53.1581,
      "raan_deg": 222.1754,
      "arg_perigee_deg": 86.1385,
      "mean_anomaly_deg": 273.971,
      "mean_motion_rev_day": 15.30202535
    },
    {
      "epoch": "2026-04-22T18:42:44.618112Z",
      "apogee_km": 475.86961517220243,
      "perigee_km": 474.65793391526313,
      "latitude_deg": -5.601234380609631e-05,
      "longitude_deg": 86.10268385305793,
      "height_km": 476.1162367808435,
      "semi_major_axis_km": 6853.400774543732,
      "eccentricity": 8.84e-05,
      "inclination_deg": 53.1591,
      "raan_deg": 217.625,
      "arg_perigee_deg": 85.6416,
      "mean_anomaly_deg": 274.4685,
      "mean_motion_rev_day": 15.30183688
    },
    {
      "epoch": "2026-04-23T13:31:22.692576Z",
      "apogee_km": 475.8365466533851,
      "perigee_km": 474.6218560278585,
      "latitude_deg": 1.0587980491071886e-06,
      "longitude_deg": 159.53075832269678,
      "height_km": 476.0321652493188,
      "semi_major_axis_km": 6853.366201340621,
      "eccentricity": 8.862e-05,
      "inclination_deg": 53.1609,
      "raan_deg": 213.9842,
      "arg_perigee_deg": 80.9304,
      "mean_anomaly_deg": 279.1797,
      "mean_motion_rev_day": 15.30195267
    },
    {
      "epoch": "2026-04-24T17:44:20.304096Z",
      "apogee_km": 475.84563779854216,
      "perigee_km": 474.5709155770792,
      "latitude_deg": 5.336009200971836e-06,
      "longitude_deg": 89.67142199168919,
      "height_km": 476.0065672926505,
      "semi_major_axis_km": 6853.345276687811,
      "eccentricity": 9.3e-05,
      "inclination_deg": 53.1595,
      "raan_deg": 208.5237,
      "arg_perigee_deg": 80.9544,
      "mean_anomaly_deg": 279.1562,
      "mean_motion_rev_day": 15.30202275
    },
    {
      "epoch": "2026-04-25T17:15:06.715872Z",
      "apogee_km": 475.7439560162711,
      "perigee_km": 474.51310952658423,
      "latitude_deg": 2.449975953912122e-06,
      "longitude_deg": 91.46139699615694,
      "height_km": 475.888788612882,
      "semi_major_axis_km": 6853.265532771427,
      "eccentricity": 8.98e-05,
      "inclination_deg": 53.1604,
      "raan_deg": 203.9727,
      "arg_perigee_deg": 77.0032,
      "mean_anomaly_deg": 283.1069,
      "mean_motion_rev_day": 15.30228983
    },
    {
      "epoch": "2026-04-26T16:45:55.335168Z",
      "apogee_km": 475.82273694215473,
      "perigee_km": 474.64806891229273,
      "latitude_deg": 1.75798720383462e-05,
      "longitude_deg": 93.24236288832172,
      "height_km": 476.1026930188575,
      "semi_major_axis_km": 6853.372402927223,
      "eccentricity": 8.57e-05,
      "inclination_deg": 53.1606,
      "raan_deg": 199.4219,
      "arg_perigee_deg": 86.9353,
      "mean_anomaly_deg": 273.1746,
      "mean_motion_rev_day": 15.3019319
    },
    {
      "epoch": "2026-04-27T16:16:43.243392Z",
      "apogee_km": 475.79135940186734,
      "perigee_km": 474.6084734500919,
      "latitude_deg": -1.467744148646193e-05,
      "longitude_deg": 95.02676474091722,
      "height_km": 476.043522679252,
      "semi_major_axis_km": 6853.336916425979,
      "eccentricity": 8.63e-05,
      "inclination_deg": 53.1609,
      "raan_deg": 194.8716,
      "arg_perigee_deg": 84.6523,
      "mean_anomaly_deg": 275.4576,
      "mean_motion_rev_day": 15.30205075
    },
    {
      "epoch": "2026-04-28T15:47:31.942176Z",
      "apogee_km": 475.9331371094777,
      "perigee_km": 474.56657177070156,
      "latitude_deg": -1.663314384680893e-05,
      "longitude_deg": 96.80778615604277,
      "height_km": 476.07039475839065,
      "semi_major_axis_km": 6853.386854440089,
      "eccentricity": 9.97e-05,
      "inclination_deg": 53.1608,
      "raan_deg": 190.3212,
      "arg_perigee_deg": 83.4453,
      "mean_anomaly_deg": 276.6661,
      "mean_motion_rev_day": 15.3018835
    }
  ]
}